ANIK D1 (TELESAT 6)     
1 13431U 82082A   26087.51309947 -.00000317  00000+0  00000+0 0  9993
2 13431  12.3000 333.4769 0007950 345.0287 193.7894  1.00136821 45793
EKRAN 9                 
1 13554U 82093A   26088.06419139 -.00000348  00000+0  00000+0 0  9991
2 13554   7.2659 300.2508 0027952   8.7844   3.2208  1.00248766119205
GORIZONT 6              
1 13624U 82103A   26087.86728479  .00000063  00000+0  00000+0 0  9991
2 13624   7.5146 302.4664 0003147 357.3742  27.0710  1.00267298120142
SL-12 R/B(2)            
1 13630U 82103E   26087.92792715 -.00000338  00000+0  00000+0 0  9995
2 13630   7.4742 302.3436 0010718 189.6220 162.7054  1.00348333120693
SATCOM C5               
1 13631U 82105A   26088.16556030 -.00000117  00000+0  00000+0 0  9998
2 13631  12.1892 333.0394 0006299  30.8236 136.1907  1.00273366125577
SBS 3                   
1 13651U 82110B   26087.86667812 -.00000008  00000+0  00000+0 0  9992
2 13651  12.5880 334.9364 0005641 100.7272 247.7003  0.99937735 45733
ANIK C3 (TELESAT 5)     
1 13652U 82110C   26087.75530939 -.00000003  00000+0  00000+0 0  9995
2 13652  12.5628 334.7487 0002068   7.6414 185.6007  0.99895590 45704
RADUGA 12               
1 13974U 83028A   26087.70131404 -.00000076  00000+0  00000+0 0  9990
2 13974   8.3628 306.8518 0002622   5.5710 196.9300  1.00251075168570
SL-12 R/B(2)            
1 13983U 83028F   26087.76596766  .00000113  00000+0  00000+0 0  9993
2 13983   8.3925 306.9157 0023131 222.7509 329.3534  1.00044624157004
SATCOM 1R               
1 13984U 83030A   26087.77246769  .00000002  00000+0  00000+0 0  9990
2 13984  13.2767 339.0909 0005133 109.3815  85.8803  0.99843912129677
GOES 6                  
1 14050U 83041A   26088.16391362 -.00000061  00000+0  00000+0 0  9997
2 14050  10.3189 321.7461 0001752 311.0051 218.5671  1.00220089215217
SL-12 R/B(2)            
1 14114U 82044F   26087.90114322 -.00000085  00000+0  00000+0 0  9996
2 14114   8.3703 297.3242 0014348 197.6108   9.9465  1.00263472 46531
PALAPA B1               
1 14134U 83059C   26087.83605890  .00000111  00000+0  00000+0 0  9991
2 14134  11.6892 330.0360 0002264  66.7992 121.1589  1.00167714119982
SL-12 R/B(2)            
1 14195U 81102F   26087.82109600 -.00000037  00000+0  00000+0 0  9990
2 14195   6.7954 295.0679 0008263 228.0637 131.6893  1.00237859122199
INSAT-1B                
1 14318U 83089B   26087.63449375 -.00000268  00000+0  00000+0 0  9994
2 14318  11.2773 327.5514 0008852 256.9239 282.9737  1.00171440124403
GALAXY 2 (G-2)          
1 14365U 83098A   26086.54466365  .00000093  00000+0  00000+0 0  9998
2 14365  13.6701 342.5899 0003694  73.4755 174.3873  1.00177375131416
EKRAN 11                
1 14377U 83100A   26088.05857969 -.00000325  00000+0  00000+0 0  9996
2 14377   7.9395 305.0848 0004221 352.4905   7.3720  1.00304280 46571
