[{"OBJECT_NAME":"ANIK D1 (TELESAT 6)","OBJECT_ID":"1982-082A","EPOCH":"2026-03-28T12:18:51.794208","MEAN_MOTION":1.00136821,"ECCENTRICITY":0.000795,"INCLINATION":12.3,"RA_OF_ASC_NODE":333.4769,"ARG_OF_PERICENTER":345.0287,"MEAN_ANOMALY":193.7894,"EPHEMERIS_TYPE":0,"CLASSIFICATION_TYPE":"U","NORAD_CAT_ID":13431,"ELEMENT_SET_NO":999,"REV_AT_EPOCH":4579,"BSTAR":0,"MEAN_MOTION_DOT":-3.17e-6,"MEAN_MOTION_DDOT":0},{"OBJECT_NAME":"EKRAN 9","OBJECT_ID":"1982-093A","EPOCH":"2026-03-29T01:32:26.136096","MEAN_MOTION":1.00248766,"ECCENTRICITY":0.0027952,"INCLINATION":7.2659,"RA_OF_ASC_NODE":300.2508,"ARG_OF_PERICENTER":8.7844,"MEAN_ANOMALY":3.2208,"EPHEMERIS_TYPE":0,"CLASSIFICATION_TYPE":"U","NORAD_CAT_ID":13554,"ELEMENT_SET_NO":999,"REV_AT_EPOCH":11920,"BSTAR":0,"MEAN_MOTION_DOT":-3.48e-6,"MEAN_MOTION_DDOT":0},{"OBJECT_NAME":"GORIZONT 6","OBJECT_ID":"1982-103A","EPOCH":"2026-03-28T20:48:53.405856","MEAN_MOTION":1.00267298,"ECCENTRICITY":0.0003147,"INCLINATION":7.5146,"RA_OF_ASC_NODE":302.4664,"ARG_OF_PERICENTER":357.3742,"MEAN_ANOMALY":27.071,"EPHEMERIS_TYPE":0,"CLASSIFICATION_TYPE":"U","NORAD_CAT_ID":13624,"ELEMENT_SET_NO":999,"REV_AT_EPOCH":12014,"BSTAR":0,"MEAN_MOTION_DOT":6.3e-7,"MEAN_MOTION_DDOT":0},{"OBJECT_NAME":"SL-12 R/B(2)","OBJECT_ID":"1982-103E","EPOCH":"2026-03-28T22:16:12.905760","MEAN_MOTION":1.00348333,"ECCENTRICITY":0.0010718,"INCLINATION":7.4742,"RA_OF_ASC_NODE":302.3436,"ARG_OF_PERICENTER":189.622,"MEAN_ANOMALY":162.7054,"EPHEMERIS_TYPE":0,"CLASSIFICATION_TYPE":"U","NORAD_CAT_ID":13630,"ELEMENT_SET_NO":999,"REV_AT_EPOCH":12069,"BSTAR":0,"MEAN_MOTION_DOT":-3.38e-6,"MEAN_MOTION_DDOT":0},{"OBJECT_NAME":"SATCOM C5","OBJECT_ID":"1982-105A","EPOCH":"2026-03-29T03:58:24.409920","MEAN_MOTION":1.00273366,"ECCENTRICITY":0.0006299,"INCLINATION":12.1892,"RA_OF_ASC_NODE":333.0394,"ARG_OF_PERICENTER":30.8236,"MEAN_ANOMALY":136.1907,"EPHEMERIS_TYPE":0,"CLASSIFICATION_TYPE":"U","NORAD_CAT_ID":13631,"ELEMENT_SET_NO":999,"REV_AT_EPOCH":12557,"BSTAR":0,"MEAN_MOTION_DOT":-1.17e-6,"MEAN_MOTION_DDOT":0},{"OBJECT_NAME":"SBS 3","OBJECT_ID":"1982-110B","EPOCH":"2026-03-28T20:48:00.989568","MEAN_MOTION":0.99937735,"ECCENTRICITY":0.0005641,"INCLINATION":12.588,"RA_OF_ASC_NODE":334.9364,"ARG_OF_PERICENTER":100.7272,"MEAN_ANOMALY":247.7003,"EPHEMERIS_TYPE":0,"CLASSIFICATION_TYPE":"U","NORAD_CAT_ID":13651,"ELEMENT_SET_NO":999,"REV_AT_EPOCH":4573,"BSTAR":0,"MEAN_MOTION_DOT":-8.0e-8,"MEAN_MOTION_DDOT":0},{"OBJECT_NAME":"ANIK C3 (TELESAT 5)","OBJECT_ID":"1982-110C","EPOCH":"2026-03-28T18:07:38.731296","MEAN_MOTION":0.9989559,"ECCENTRICITY":0.00020688,"INCLINATION":12.5628,"RA_OF_ASC_NODE":334.7487,"ARG_OF_PERICENTER":7.6414,"MEAN_ANOMALY":185.6007,"EPHEMERIS_TYPE":0,"CLASSIFICATION_TYPE":"U","NORAD_CAT_ID":13652,"ELEMENT_SET_NO":999,"REV_AT_EPOCH":4570,"BSTAR":0,"MEAN_MOTION_DOT":-3.0e-8,"MEAN_MOTION_DDOT":0},{"OBJECT_NAME":"RADUGA 12","OBJECT_ID":"1983-028A","EPOCH":"2026-03-28T16:49:53.533056","MEAN_MOTION":1.00251075,"ECCENTRICITY":0.0002622,"INCLINATION":8.3628,"RA_OF_ASC_NODE":306.8518,"ARG_OF_PERICENTER":5.571,"MEAN_ANOMALY":196.93,"EPHEMERIS_TYPE":0,"CLASSIFICATION_TYPE":"U","NORAD_CAT_ID":13974,"ELEMENT_SET_NO":999,"REV_AT_EPOCH":16857,"BSTAR":0,"MEAN_MOTION_DOT":-7.6e-7,"MEAN_MOTION_DDOT":0},{"OBJECT_NAME":"SL-12 R/B(2)","OBJECT_ID":"1983-028F","EPOCH":"2026-03-28T18:22:59.605824","MEAN_MOTION":1.00044624,"ECCENTRICITY":0.00231311,"INCLINATION":8.3925,"RA_OF_ASC_NODE":306.9157,"ARG_OF_PERICENTER":222.7509,"MEAN_ANOMALY":329.3534,"EPHEMERIS_TYPE":0,"CLASSIFICATION_TYPE":"U","NORAD_CAT_ID":13983,"ELEMENT_SET_NO":999,"REV_AT_EPOCH":15700,"BSTAR":0,"MEAN_MOTION_DOT":1.13e-6,"MEAN_MOTION_DDOT":0},{"OBJECT_NAME":"SATCOM 1R","OBJECT_ID":"1983-030A","EPOCH":"2026-03-28T18:32:21.208416","MEAN_MOTION":0.99843912,"ECCENTRICITY":0.00051333,"INCLINATION":13.2767,"RA_OF_ASC_NODE":339.0909,"ARG_OF_PERICENTER":109.3815,"MEAN_ANOMALY":85.8803,"EPHEMERIS_TYPE":0,"CLASSIFICATION_TYPE":"U","NORAD_CAT_ID":13984,"ELEMENT_SET_NO":999,"REV_AT_EPOCH":12967,"BSTAR":0,"MEAN_MOTION_DOT":2.0e-8,"MEAN_MOTION_DDOT":0},{"OBJECT_NAME":"GOES 6","OBJECT_ID":"1983-041A","EPOCH":"2026-03-29T03:56:02.136768","MEAN_MOTION":1.00220089,"ECCENTRICITY":0.0001752,"INCLINATION":10.3189,"RA_OF_ASC_NODE":321.7461,"ARG_OF_PERICENTER":311.0051,"MEAN_ANOMALY":218.5671,"EPHEMERIS_TYPE":0,"CLASSIFICATION_TYPE":"U","NORAD_CAT_ID":14050,"ELEMENT_SET_NO":999,"REV_AT_EPOCH":21521,"BSTAR":0,"MEAN_MOTION_DOT":-6.1e-7,"MEAN_MOTION_DDOT":0},{"OBJECT_NAME":"SL-12 R/B(2)","OBJECT_ID":"1982-044F","EPOCH":"2026-03-28T21:37:38.774208","MEAN_MOTION":1.00263472,"ECCENTRICITY":0.0014348,"INCLINATION":8.3703,"RA_OF_ASC_NODE":297.3242,"ARG_OF_PERICENTER":197.6108,"MEAN_ANOMALY":9.9465,"EPHEMERIS_TYPE":0,"CLASSIFICATION_TYPE":"U","NORAD_CAT_ID":14114,"ELEMENT_SET_NO":999,"REV_AT_EPOCH":4653,"BSTAR":0,"MEAN_MOTION_DOT":-8.5e-7,"MEAN_MOTION_DDOT":0},{"OBJECT_NAME":"PALAPA B1","OBJECT_ID":"1983-059C","EPOCH":"2026-03-28T20:03:55.488960","MEAN_MOTION":1.00167714,"ECCENTRICITY":0.00022645,"INCLINATION":11.6892,"RA_OF_ASC_NODE":330.036,"ARG_OF_PERICENTER":66.7992,"MEAN_ANOMALY":121.1589,"EPHEMERIS_TYPE":0,"CLASSIFICATION_TYPE":"U","NORAD_CAT_ID":14134,"ELEMENT_SET_NO":999,"REV_AT_EPOCH":11998,"BSTAR":0,"MEAN_MOTION_DOT":1.11e-6,"MEAN_MOTION_DDOT":0},{"OBJECT_NAME":"SL-12 R/B(2)","OBJECT_ID":"1981-102F","EPOCH":"2026-03-28T19:42:22.694400","MEAN_MOTION":1.00237859,"ECCENTRICITY":0.0008263,"INCLINATION":6.7954,"RA_OF_ASC_NODE":295.0679,"ARG_OF_PERICENTER":228.0637,"MEAN_ANOMALY":131.6893,"EPHEMERIS_TYPE":0,"CLASSIFICATION_TYPE":"U","NORAD_CAT_ID":14195,"ELEMENT_SET_NO":999,"REV_AT_EPOCH":12219,"BSTAR":0,"MEAN_MOTION_DOT":-3.7e-7,"MEAN_MOTION_DDOT":0},{"OBJECT_NAME":"INSAT-1B","OBJECT_ID":"1983-089B","EPOCH":"2026-03-28T15:13:40.260000","MEAN_MOTION":1.0017144,"ECCENTRICITY":0.00088529,"INCLINATION":11.2773,"RA_OF_ASC_NODE":327.5514,"ARG_OF_PERICENTER":256.9239,"MEAN_ANOMALY":282.9737,"EPHEMERIS_TYPE":0,"CLASSIFICATION_TYPE":"U","NORAD_CAT_ID":14318,"ELEMENT_SET_NO":999,"REV_AT_EPOCH":12440,"BSTAR":0,"MEAN_MOTION_DOT":-2.68e-6,"MEAN_MOTION_DDOT":0},{"OBJECT_NAME":"GALAXY 2 (G-2)","OBJECT_ID":"1983-098A","EPOCH":"2026-03-27T13:04:18.939360","MEAN_MOTION":1.00177375,"ECCENTRICITY":0.0003694,"INCLINATION":13.6701,"RA_OF_ASC_NODE":342.5899,"ARG_OF_PERICENTER":73.4755,"MEAN_ANOMALY":174.3873,"EPHEMERIS_TYPE":0,"CLASSIFICATION_TYPE":"U","NORAD_CAT_ID":14365,"ELEMENT_SET_NO":999,"REV_AT_EPOCH":13141,"BSTAR":0,"MEAN_MOTION_DOT":9.3e-7,"MEAN_MOTION_DDOT":0},{"OBJECT_NAME":"EKRAN 11","OBJECT_ID":"1983-100A","EPOCH":"2026-03-29T01:24:21.285216","MEAN_MOTION":1.0030428,"ECCENTRICITY":0.0004221,"INCLINATION":7.9395,"RA_OF_ASC_NODE":305.0848,"ARG_OF_PERICENTER":352.4905,"MEAN_ANOMALY":7.372,"EPHEMERIS_TYPE":0,"CLASSIFICATION_TYPE":"U","NORAD_CAT_ID":14377,"ELEMENT_SET_NO":999,"REV_AT_EPOCH":4657,"BSTAR":0,"MEAN_MOTION_DOT":-3.25e-6,"MEAN_MOTION_DDOT":0}]
